[{"OBJECT_NAME":"STARLINK-31303","OBJECT_ID":"2024-049J","EPOCH":"2026-03-09T12:17:45.561696","MEAN_MOTION":15.27569977,"ECCENTRICITY":0.00017162,"INCLINATION":43.0029,"RA_OF_ASC_NODE":133.6902,"ARG_OF_PERICENTER":276.0007,"MEAN_ANOMALY":84.0649,"EPHEMERIS_TYPE":0,"CLASSIFICATION_TYPE":"U","NORAD_CAT_ID":59239,"ELEMENT_SET_NO":999,"REV_AT_EPOCH":11250,"BSTAR":-3.420973e-6,"MEAN_MOTION_DOT":-3.56e-6,"MEAN_MOTION_DDOT":0},{"OBJECT_NAME":"H-2A R\/B","OBJECT_ID":"2006-002B","EPOCH":"2026-03-09T22:32:18.942432","MEAN_MOTION":15.16426804,"ECCENTRICITY":0.00518947,"INCLINATION":98.2413,"RA_OF_ASC_NODE":215.9838,"ARG_OF_PERICENTER":240.1322,"MEAN_ANOMALY":119.4746,"EPHEMERIS_TYPE":0,"CLASSIFICATION_TYPE":"U","NORAD_CAT_ID":28932,"ELEMENT_SET_NO":999,"REV_AT_EPOCH":9447,"BSTAR":0.00057792596,"MEAN_MOTION_DOT":0.00011556,"MEAN_MOTION_DDOT":0}]
